KINEIS-1E               
1 60083U 24114E   25239.32543388  .00000957  00000+0  13416-3 0  9994
2 60083  98.0087 259.5765 0001555  53.9235 306.2120 14.79778715 63912
KINEIS-1A               
1 60084U 24114F   25239.69701163  .00000688  00000+0  98529-4 0  9992
2 60084  98.0098 260.0531 0003657  25.4099 334.7291 14.79764636 63978
ELECTRON KICK STAGE R/B 
1 60085U 24114G   25239.07632255  .00008002  00000+0  48757-3 0  9995
2 60085  97.9812 275.8837 0072420  21.5284 338.8961 15.08458532 64968
ASTRA 1P (SES-24)       
1 60086U 24115A   25239.17547632  .00000117  00000+0  00000+0 0  9996
2 60086   0.0773 313.3923 0001105 236.1299 228.5049  1.00271411  4249
CATCH-1                 
1 60088U 24116A   25239.26714957  .00002342  00000+0  26437-3 0  9993
2 60088  28.9945 170.7430 0004309 297.2111  62.8043 14.83383337 63951
SVOM                    
1 60089U 24116B   25239.26147821  .00001789  00000+0  20338-3 0  9992
2 60089  28.9950 173.6724 0005320 280.0301  79.9691 14.82379283 63920
STARLINK-31441          
1 60091U 24117A   25239.22165132 -.00000204  00000+0  52495-5 0  9990
2 60091  53.1608 220.3307 0001310  85.1759 274.9391 15.30190304 67114
STARLINK-32044          
1 60092U 24117B   25238.94034794 -.00000703  00000+0 -11620-4 0  9997
2 60092  53.1593 221.4156 0000962  81.5870 278.5240 15.30196770 67079
STARLINK-31239          
1 60093U 24117C   25238.66653290 -.00000527  00000+0 -56791-5 0  9998
2 60093  53.1590 223.2669 0001247  87.7069 272.4074 15.30194042 67024
STARLINK-32007          
1 60094U 24117D   25239.24064248 -.00001862  00000+0 -50766-4 0  9991
2 60094  53.1580 220.4503 0001368  92.5860 267.5297 15.30189557 67114
STARLINK-32028          
1 60095U 24117E   25239.23114566  .00000047  00000+0  13704-4 0  9993
2 60095  53.1604 220.3892 0001264  79.0875 281.0268 15.30194949 67113
STARLINK-32016          
1 60096U 24117F   25239.25014806 -.00001893  00000+0 -51824-4 0  9999
2 60096  53.1586 220.5090 0001107  88.2150 271.8977 15.30182425 67119
STARLINK-32003          
1 60097U 24117G   25239.21745541 -.00003759  00000+0 -11500-3 0  9992
2 60097  53.1600 220.3040 0001372  79.9213 280.1943 15.30162445 67117
STARLINK-32026          
1 60098U 24117H   25239.22692861 -.00000336  00000+0  78825-6 0  9993
2 60098  53.1607 220.3625 0001273  82.2392 277.8753 15.30191276 67115
STARLINK-31732          
1 60099U 24117J   25238.67169197 -.00000152  00000+0  69901-5 0  9993
2 60099  53.1586 222.5822 0001212  96.8952 263.2187 15.30192896 67031
STARLINK-31996          
1 60100U 24117K   25239.20793066 -.00000322  00000+0  12606-5 0  9993
2 60100  53.1607 220.2426 0001479  89.8879 270.2292 15.30190968 67110
STARLINK-31999          
1 60101U 24117L   25238.66547613 -.00001539  00000+0 -39848-4 0  9996
2 60101  53.1587 223.2598 0001221  90.1381 269.9759 15.30198647 67024
STARLINK-31954          
1 60102U 24117M   25238.98571312  .00000277  00000+0  21467-4 0  9999
2 60102  53.1584 221.7028 0001110  93.7850 266.3277 15.30198592 67070
STARLINK-32013          
1 60103U 24117N   25239.24379909 -.00008488  00000+0 -27442-3 0  9990
2 60103  53.1600 220.4691 0001651  69.5687 290.5491 15.30240785 67115
STARLINK-32009          
1 60104U 24117P   25238.66863834 -.00000244  00000+0  38917-5 0  9993
2 60104  53.1588 223.2523 0001211  94.0208 266.0931 15.30190411 67027
STARLINK-32018          
1 60105U 24117Q   25239.23431450 -.00000561  00000+0 -68325-5 0  9992
2 60105  53.1602 220.4079 0001180  81.1005 279.0129 15.30192709 67112
STARLINK-32045          
1 60106U 24117R   25239.23745148 -.00033879  00000+0 -11313-2 0  9995
2 60106  53.1598 220.4284 0000479 233.6551 126.4405 15.30359462 67118
STARLINK-32035          
1 60107U 24117S   25238.24404739 -.00002273  00000+0 -64704-4 0  9992
2 60107  53.1591 224.8896 0000988  83.0947 277.0167 15.30177859 66968
STARLINK-32042          
1 60108U 24117T   25239.21426474 -.00000528  00000+0 -57019-5 0  9994
2 60108  53.1601 220.2809 0001314  85.7251 274.3900 15.30186996 67111
STARLINK-32040          
1 60109U 24117U   25239.21763140  .00016578  00000+0  56290-3 0  9997
2 60109  53.1585 220.3020 0001926  83.6910 276.4310 15.30641000 67117
STARLINK-32001          
1 60110U 24117V   25238.35567759 -.00000474  00000+0 -38784-5 0  9991
2 60110  53.1597 224.1648 0001326  90.0961 270.0192 15.30182238 66987
STARLINK-32015          
1 60111U 24117W   25238.93717528 -.00000684  00000+0 -10958-4 0  9992
2 60111  53.1588 221.3930 0001215  98.5282 261.5856 15.30188713 67074
STARLINK-32024          
1 60112U 24117X   25239.21109846  .00000166  00000+0  17759-4 0  9992
2 60112  53.1606 220.2602 0001501  87.9073 272.2100 15.30187171 67111
STARLINK-11201 [DTC]    
1 60113U 24118A   25238.89089630  .00000069  00000+0  54233-5 0  9996
2 60113  53.1588 101.8677 0000808  90.1066 270.0045 15.69710601 67390
STARLINK-11198 [DTC]    
1 60114U 24118B   25238.88597641  .00000237  00000+0  68071-5 0  9994
2 60114  53.1593 101.8351 0000841  76.4094 283.7017 15.69716517 67393
STARLINK-11112 [DTC]    
1 60115U 24118C   25239.00842672 -.00001466  00000+0 -72551-5 0  9992
2 60115  53.1593 101.1761 0000686 100.1083 260.0012 15.69706640 67414
STARLINK-11210 [DTC]    
1 60116U 24118D   25239.00352298 -.00002643  00000+0 -16961-4 0  9993
2 60116  53.1589 101.1434 0000761  75.4770 284.6332 15.69714576 67412
STARLINK-11203 [DTC]    
1 60117U 24118E   25238.99861830 -.00000081  00000+0  41823-5 0  9997
2 60117  53.1596 101.1119 0000735  62.1416 297.9676 15.69703355 67413
STARLINK-11177 [DTC]    
1 60118U 24118F   25238.99371159 -.00002140  00000+0 -12817-4 0  9997
2 60118  53.1587 101.0778 0001011 149.5990 210.5086 15.69707113 67411
STARLINK-11127 [DTC]    
1 60119U 24118G   25238.92513140  .00000251  00000+0  69251-5 0  9993
2 60119  53.1591 101.3586 0000895  87.8646 272.2474 15.69713411 67401
STARLINK-11164 [DTC]    
1 60120U 24118H   25239.04756901 -.00001937  00000+0 -11138-4 0  9997
2 60120  53.1584 100.6992 0000800 104.9351 255.1756 15.69708724 67424
STARLINK-11119 [DTC]    
1 60121U 24118J   25239.03284034 -.00003295  00000+0 -22323-4 0  9997
2 60121  53.1583 100.6016 0001152 107.9114 252.2029 15.69733901 67428
STARLINK-11157 [DTC]    
1 60122U 24118K   25238.91041683  .00004226  00000+0  39732-4 0  9990
2 60122  53.1584 101.2608 0000464  39.5645 320.5407 15.69700920 67400
STARLINK-11162 [DTC]    
1 60123U 24118L   25238.83693480 -.00000250  00000+0  27941-5 0  9994
2 60123  53.1596 101.5093 0000835  85.8079 274.3035 15.69715320 67393
STARLINK-11161 [DTC]    
1 60124U 24118M   25239.02314459 -.00001293  00000+0 -58203-5 0  9997
2 60124  53.1592 101.2703 0000873  63.2127 296.8981 15.69706583 67414
STARLINK-11160 [DTC]    
1 60125U 24118N   25239.04266006 -.00000540  00000+0  40143-6 0  9992
2 60125  53.1595 100.6654 0001103  89.4535 270.6610 15.69707818 67428
STARLINK-31846          
1 60126U 24118P   25239.03097798  .00000881  00000+0  41865-4 0  9999
2 60126  53.1577 210.8603 0001169  97.4456 262.6677 15.30201043 65890
STARLINK-31840          
1 60127U 24118Q   25238.64543899 -.00000098  00000+0  88323-5 0  9996
2 60127  53.1594 212.7217 0001261  92.4744 267.6401 15.30191125 65833
STARLINK-31813          
1 60128U 24118R   25238.64227758 -.00001355  00000+0 -33640-4 0  9999
2 60128  53.1598 212.7008 0001672  87.1835 272.9357 15.30190053 65832
STARLINK-31845          
1 60129U 24118S   25239.03151900  .00000615  00000+0  32898-4 0  9999
2 60129  53.1593 208.7268 0001372  98.8347 261.2809 15.30179569 65927
STARLINK-31838          
1 60130U 24118T   25238.91305556 -.00000157  00000+0  68569-5 0  9992
2 60130  53.1596 211.5442 0003182  87.0016 273.1349 15.30170945 65876
STARLINK-31785          
1 60131U 24118U   25239.22272112 -.00000426  00000+0 -22427-5 0  9992
2 60131  53.1584 209.9248 0001304  92.1237 267.9913 15.30190330 65929
STARLINK-31792          
1 60132U 24118V   25239.21057595 -.00001352  00000+0 -33543-4 0  9997
2 60132  53.1586 207.6732 0001017  86.0821 274.0296 15.30190532 65957
GOES 19                 
1 60133U 24119A   25239.15675623 -.00000251  00000+0  00000+0 0  9993
2 60133   0.0310 345.3076 0000371 269.5775  61.9828  1.00272498  4011
STARLINK-32043          
1 60135U 24120A   25239.15926017 -.00000128  00000+0  78071-5 0  9995
2 60135  53.1592 143.4311 0001153  77.1273 282.9856 15.30196546 66592
STARLINK-32112          
1 60136U 24120B   25239.12560698 -.00000273  00000+0  29117-5 0  9990
2 60136  53.1609 143.9345 0001250  96.5181 263.5962 15.30186734 66664
STARLINK-32050          
1 60137U 24120C   25239.00131526  .00004319  00000+0  15801-3 0  9999
2 60137  53.1599 144.5849 0001362  82.9314 277.1842 15.30171852 66562
STARLINK-32025          
1 60138U 24120D   25239.14237030  .00000974  00000+0  45001-4 0  9991
2 60138  53.1598 143.3239 0001246  84.3525 275.7617 15.30197768 66594
STARLINK-31867          
1 60139U 24120E   25239.12033184 -.00000506  00000+0 -49615-5 0  9993
2 60139  53.1615 143.9030 0001257 101.5697 258.5445 15.30188867 66581
STARLINK-31694          
1 60140U 24120F   25239.12349363 -.00000124  00000+0  79484-5 0  9996
2 60140  53.1597 143.9213 0001194  82.8187 277.2949 15.30191841 66662
STARLINK-32036          
1 60141U 24120G   25239.12244418 -.00001102  00000+0 -25106-4 0  9991
2 60141  53.1594 143.9145 0001131  84.0178 276.0952 15.30185415 66660
STARLINK-32031          
1 60142U 24120H   25239.11611132 -.00000048  00000+0  10505-4 0  9996
2 60142  53.1617 143.8733 0001034 118.5269 241.5836 15.30197831 66668
STARLINK-32027          
1 60143U 24120J   25239.13814334  .00000427  00000+0  26537-4 0  9990
2 60143  53.1603 143.2584 0001239  86.7411 273.3732 15.30197386 66678
STARLINK-32033          
1 60144U 24120K   25239.11294037 -.00000441  00000+0 -27474-5 0  9991
2 60144  53.1607 143.8528 0001352  87.2820 272.8336 15.30195531 66587
